IRIDE FM6               
1 66700U 25276AL  25358.79420154  .00011070  00000+0  54336-3 0  9998
2 66700  97.4418  70.3795 0001786 154.7905 205.3416 15.18255758  3953
IRIDE FM7               
1 66701U 25276AM  25358.80839534  .00077692  00000+0  38410-2 0  9993
2 66701  97.4409  70.3593 0003330 246.5595 113.5289 15.17502301  3958
IRIDE FM8               
1 66702U 25276AN  25358.80822696  .00011024  00000+0  55402-3 0  9993
2 66702  97.4395  70.3527 0002868 254.5636 105.5280 15.17426597  3954
PELICAN-6               
1 66703U 25276AP  25358.83334491 -.00052898  00000+0 -26662-2 0  9999
2 66703  97.4407  70.3826 0001086 218.8302 284.9155 15.17381921  5108
FLOCK 4H-1              
1 66704U 25276AQ  25358.79582677  .00008475  00000+0  41863-3 0  9997
2 66704  97.4379  70.3619 0002039 160.0991 200.0323 15.18109080  3950
FLOCK 4H-2              
1 66705U 25276AR  25358.79529778  .00007912  00000+0  39048-3 0  9998
2 66705  97.4375  70.3622 0001468 152.5414 207.5897 15.18162682  3957
FLOCK 4H-3              
1 66706U 25276AS  25358.80611882  .00006047  00000+0  30500-3 0  9991
2 66706  97.4440  70.3726 0002981 236.8923 123.2025 15.17498214  3957
FLOCK 4H-4              
1 66707U 25276AT  25358.81038853  .00006792  00000+0  34474-3 0  9995
2 66707  97.4425  70.3610 0003646 242.0331 118.0534 15.17229197  3953
FLOCK 4H-5              
1 66708U 25276AU  25358.79406964  .00006611  00000+0  32662-3 0  9992
2 66708  97.4381  70.3673 0001323 124.3624 235.7735 15.18187544  3951
FLOCK 4H-6              
1 66709U 25276AV  25358.79804373  .00006934  00000+0  34486-3 0  9993
2 66709  97.4429  70.3815 0002802 197.8074 162.3062 15.17933950  3957
FLOCK 4H-7              
1 66710U 25276AW  25358.80595345  .00005978  00000+0  30146-3 0  9999
2 66710  97.4386  70.3496 0001019 275.2593  84.8525 15.17507590  3951
FLOCK 4H-8              
1 66711U 25276AX  25358.80618257  .00010043  00000+0  50391-3 0  9991
2 66711  97.4428  70.3706 0002375 258.3320 101.7647 15.17510918  3951
