CCSDS_OMM_VERS = 2.0
CREATION_DATE  = 
ORIGINATOR     = 

OBJECT_NAME    = IRIDE FM6
OBJECT_ID      = 2025-276AL
CENTER_NAME    = EARTH
REF_FRAME      = TEME
TIME_SYSTEM    = UTC
MEAN_ELEMENT_THEORY = SGP/SGP4

EPOCH          = 2025-12-24T19:03:39.013056
MEAN_MOTION    = 15.18255758
ECCENTRICITY   = .0001786
INCLINATION    = 97.4418
RA_OF_ASC_NODE = 70.3795
ARG_OF_PERICENTER = 154.7905
MEAN_ANOMALY   = 205.3416

EPHEMERIS_TYPE = 0
CLASSIFICATION_TYPE = U
NORAD_CAT_ID   = 66700
ELEMENT_SET_NO = 999
REV_AT_EPOCH   = 395
BSTAR          = .54336E-3
MEAN_MOTION_DOT = .1107E-3
MEAN_MOTION_DDOT = 0

CCSDS_OMM_VERS = 2.0
CREATION_DATE  = 
ORIGINATOR     = 

OBJECT_NAME    = IRIDE FM7
OBJECT_ID      = 2025-276AM
CENTER_NAME    = EARTH
REF_FRAME      = TEME
TIME_SYSTEM    = UTC
MEAN_ELEMENT_THEORY = SGP/SGP4

EPOCH          = 2025-12-24T19:24:05.357376
MEAN_MOTION    = 15.17502301
ECCENTRICITY   = .000333
INCLINATION    = 97.4409
RA_OF_ASC_NODE = 70.3593
ARG_OF_PERICENTER = 246.5595
MEAN_ANOMALY   = 113.5289

EPHEMERIS_TYPE = 0
CLASSIFICATION_TYPE = U
NORAD_CAT_ID   = 66701
ELEMENT_SET_NO = 999
REV_AT_EPOCH   = 395
BSTAR          = .3841E-2
MEAN_MOTION_DOT = .77692E-3
MEAN_MOTION_DDOT = 0

CCSDS_OMM_VERS = 2.0
CREATION_DATE  = 
ORIGINATOR     = 

OBJECT_NAME    = IRIDE FM8
OBJECT_ID      = 2025-276AN
CENTER_NAME    = EARTH
REF_FRAME      = TEME
TIME_SYSTEM    = UTC
MEAN_ELEMENT_THEORY = SGP/SGP4

EPOCH          = 2025-12-24T19:23:50.809344
MEAN_MOTION    = 15.17426597
ECCENTRICITY   = .0002868
INCLINATION    = 97.4395
RA_OF_ASC_NODE = 70.3527
ARG_OF_PERICENTER = 254.5636
MEAN_ANOMALY   = 105.5280

EPHEMERIS_TYPE = 0
CLASSIFICATION_TYPE = U
NORAD_CAT_ID   = 66702
ELEMENT_SET_NO = 999
REV_AT_EPOCH   = 395
BSTAR          = .55402E-3
MEAN_MOTION_DOT = .11024E-3
MEAN_MOTION_DDOT = 0

CCSDS_OMM_VERS = 2.0
CREATION_DATE  = 
ORIGINATOR     = 

OBJECT_NAME    = PELICAN-6
OBJECT_ID      = 2025-276AP
CENTER_NAME    = EARTH
REF_FRAME      = TEME
TIME_SYSTEM    = UTC
MEAN_ELEMENT_THEORY = SGP/SGP4

EPOCH          = 2025-12-24T20:00:01.000224
MEAN_MOTION    = 15.17381921
ECCENTRICITY   = .0001086
INCLINATION    = 97.4407
RA_OF_ASC_NODE = 70.3826
ARG_OF_PERICENTER = 218.8302
MEAN_ANOMALY   = 284.9155

EPHEMERIS_TYPE = 0
CLASSIFICATION_TYPE = U
NORAD_CAT_ID   = 66703
ELEMENT_SET_NO = 999
REV_AT_EPOCH   = 510
BSTAR          = -.26662E-2
MEAN_MOTION_DOT = -.52898E-3
MEAN_MOTION_DDOT = 0

CCSDS_OMM_VERS = 2.0
CREATION_DATE  = 
ORIGINATOR     = 

OBJECT_NAME    = FLOCK 4H-1
OBJECT_ID      = 2025-276AQ
CENTER_NAME    = EARTH
REF_FRAME      = TEME
TIME_SYSTEM    = UTC
MEAN_ELEMENT_THEORY = SGP/SGP4

EPOCH          = 2025-12-24T19:05:59.432928
MEAN_MOTION    = 15.18109080
ECCENTRICITY   = .0002039
INCLINATION    = 97.4379
RA_OF_ASC_NODE = 70.3619
ARG_OF_PERICENTER = 160.0991
MEAN_ANOMALY   = 200.0323

EPHEMERIS_TYPE = 0
CLASSIFICATION_TYPE = U
NORAD_CAT_ID   = 66704
ELEMENT_SET_NO = 999
REV_AT_EPOCH   = 395
BSTAR          = .41863E-3
MEAN_MOTION_DOT = .8475E-4
MEAN_MOTION_DDOT = 0

CCSDS_OMM_VERS = 2.0
CREATION_DATE  = 
ORIGINATOR     = 

OBJECT_NAME    = FLOCK 4H-2
OBJECT_ID      = 2025-276AR
CENTER_NAME    = EARTH
REF_FRAME      = TEME
TIME_SYSTEM    = UTC
MEAN_ELEMENT_THEORY = SGP/SGP4

EPOCH          = 2025-12-24T19:05:13.728192
MEAN_MOTION    = 15.18162682
ECCENTRICITY   = .0001468
INCLINATION    = 97.4375
RA_OF_ASC_NODE = 70.3622
ARG_OF_PERICENTER = 152.5414
MEAN_ANOMALY   = 207.5897

EPHEMERIS_TYPE = 0
CLASSIFICATION_TYPE = U
NORAD_CAT_ID   = 66705
ELEMENT_SET_NO = 999
REV_AT_EPOCH   = 395
BSTAR          = .39048E-3
MEAN_MOTION_DOT = .7912E-4
MEAN_MOTION_DDOT = 0

CCSDS_OMM_VERS = 2.0
CREATION_DATE  = 
ORIGINATOR     = 

OBJECT_NAME    = FLOCK 4H-3
OBJECT_ID      = 2025-276AS
CENTER_NAME    = EARTH
REF_FRAME      = TEME
TIME_SYSTEM    = UTC
MEAN_ELEMENT_THEORY = SGP/SGP4

EPOCH          = 2025-12-24T19:20:48.666048
MEAN_MOTION    = 15.17498214
ECCENTRICITY   = .0002981
INCLINATION    = 97.4440
RA_OF_ASC_NODE = 70.3726
ARG_OF_PERICENTER = 236.8923
MEAN_ANOMALY   = 123.2025

EPHEMERIS_TYPE = 0
CLASSIFICATION_TYPE = U
NORAD_CAT_ID   = 66706
ELEMENT_SET_NO = 999
REV_AT_EPOCH   = 395
BSTAR          = .305E-3
MEAN_MOTION_DOT = .6047E-4
MEAN_MOTION_DDOT = 0

CCSDS_OMM_VERS = 2.0
CREATION_DATE  = 
ORIGINATOR     = 

OBJECT_NAME    = FLOCK 4H-4
OBJECT_ID      = 2025-276AT
CENTER_NAME    = EARTH
REF_FRAME      = TEME
TIME_SYSTEM    = UTC
MEAN_ELEMENT_THEORY = SGP/SGP4

EPOCH          = 2025-12-24T19:26:57.568992
MEAN_MOTION    = 15.17229197
ECCENTRICITY   = .0003646
INCLINATION    = 97.4425
RA_OF_ASC_NODE = 70.3610
ARG_OF_PERICENTER = 242.0331
MEAN_ANOMALY   = 118.0534

EPHEMERIS_TYPE = 0
CLASSIFICATION_TYPE = U
NORAD_CAT_ID   = 66707
ELEMENT_SET_NO = 999
REV_AT_EPOCH   = 395
BSTAR          = .34474E-3
MEAN_MOTION_DOT = .6792E-4
MEAN_MOTION_DDOT = 0

CCSDS_OMM_VERS = 2.0
CREATION_DATE  = 
ORIGINATOR     = 

OBJECT_NAME    = FLOCK 4H-5
OBJECT_ID      = 2025-276AU
CENTER_NAME    = EARTH
REF_FRAME      = TEME
TIME_SYSTEM    = UTC
MEAN_ELEMENT_THEORY = SGP/SGP4

EPOCH          = 2025-12-24T19:03:27.616896
MEAN_MOTION    = 15.18187544
ECCENTRICITY   = .0001323
INCLINATION    = 97.4381
RA_OF_ASC_NODE = 70.3673
ARG_OF_PERICENTER = 124.3624
MEAN_ANOMALY   = 235.7735

EPHEMERIS_TYPE = 0
CLASSIFICATION_TYPE = U
NORAD_CAT_ID   = 66708
ELEMENT_SET_NO = 999
REV_AT_EPOCH   = 395
BSTAR          = .32662E-3
MEAN_MOTION_DOT = .6611E-4
MEAN_MOTION_DDOT = 0

CCSDS_OMM_VERS = 2.0
CREATION_DATE  = 
ORIGINATOR     = 

OBJECT_NAME    = FLOCK 4H-6
OBJECT_ID      = 2025-276AV
CENTER_NAME    = EARTH
REF_FRAME      = TEME
TIME_SYSTEM    = UTC
MEAN_ELEMENT_THEORY = SGP/SGP4

EPOCH          = 2025-12-24T19:09:10.978272
MEAN_MOTION    = 15.17933950
ECCENTRICITY   = .0002802
INCLINATION    = 97.4429
RA_OF_ASC_NODE = 70.3815
ARG_OF_PERICENTER = 197.8074
MEAN_ANOMALY   = 162.3062

EPHEMERIS_TYPE = 0
CLASSIFICATION_TYPE = U
NORAD_CAT_ID   = 66709
ELEMENT_SET_NO = 999
REV_AT_EPOCH   = 395
BSTAR          = .34486E-3
MEAN_MOTION_DOT = .6934E-4
MEAN_MOTION_DDOT = 0

CCSDS_OMM_VERS = 2.0
CREATION_DATE  = 
ORIGINATOR     = 

OBJECT_NAME    = FLOCK 4H-7
OBJECT_ID      = 2025-276AW
CENTER_NAME    = EARTH
REF_FRAME      = TEME
TIME_SYSTEM    = UTC
MEAN_ELEMENT_THEORY = SGP/SGP4

EPOCH          = 2025-12-24T19:20:34.378080
MEAN_MOTION    = 15.17507590
ECCENTRICITY   = .0001019
INCLINATION    = 97.4386
RA_OF_ASC_NODE = 70.3496
ARG_OF_PERICENTER = 275.2593
MEAN_ANOMALY   = 84.8525

EPHEMERIS_TYPE = 0
CLASSIFICATION_TYPE = U
NORAD_CAT_ID   = 66710
ELEMENT_SET_NO = 999
REV_AT_EPOCH   = 395
BSTAR          = .30146E-3
MEAN_MOTION_DOT = .5978E-4
MEAN_MOTION_DDOT = 0

CCSDS_OMM_VERS = 2.0
CREATION_DATE  = 
ORIGINATOR     = 

OBJECT_NAME    = FLOCK 4H-8
OBJECT_ID      = 2025-276AX
CENTER_NAME    = EARTH
REF_FRAME      = TEME
TIME_SYSTEM    = UTC
MEAN_ELEMENT_THEORY = SGP/SGP4

EPOCH          = 2025-12-24T19:20:54.174048
MEAN_MOTION    = 15.17510918
ECCENTRICITY   = .0002375
INCLINATION    = 97.4428
RA_OF_ASC_NODE = 70.3706
ARG_OF_PERICENTER = 258.3320
MEAN_ANOMALY   = 101.7647

EPHEMERIS_TYPE = 0
CLASSIFICATION_TYPE = U
NORAD_CAT_ID   = 66711
ELEMENT_SET_NO = 999
REV_AT_EPOCH   = 395
BSTAR          = .50391E-3
MEAN_MOTION_DOT = .10043E-3
MEAN_MOTION_DDOT = 0

